[{"OBJECT_NAME":"SITRO-AIS 13","OBJECT_ID":"2024-199J","EPOCH":"2026-03-09T21:50:28.432320","MEAN_MOTION":14.9731664,"ECCENTRICITY":0.00074694,"INCLINATION":97.3312,"RA_OF_ASC_NODE":274.5755,"ARG_OF_PERICENTER":53.5174,"MEAN_ANOMALY":306.6736,"EPHEMERIS_TYPE":0,"CLASSIFICATION_TYPE":"U","NORAD_CAT_ID":61743,"ELEMENT_SET_NO":999,"REV_AT_EPOCH":11713,"BSTAR":0.00039590089,"MEAN_MOTION_DOT":4.542e-5,"MEAN_MOTION_DDOT":0},{"OBJECT_NAME":"STARLINK-34568","OBJECT_ID":"2025-142X","EPOCH":"2026-03-09T21:56:50.582976","MEAN_MOTION":14.98333705,"ECCENTRICITY":0.0002501,"INCLINATION":70.0007,"RA_OF_ASC_NODE":313.9237,"ARG_OF_PERICENTER":271.133,"MEAN_ANOMALY":88.9543,"EPHEMERIS_TYPE":0,"CLASSIFICATION_TYPE":"U","NORAD_CAT_ID":64717,"ELEMENT_SET_NO":999,"REV_AT_EPOCH":3952,"BSTAR":0.00031641368,"MEAN_MOTION_DOT":3.685e-5,"MEAN_MOTION_DDOT":0}]
